[{"OBJECT_NAME":"ONEWEB-0164","OBJECT_ID":"2021-025X","EPOCH":"2026-05-01T02:16:11.829504","MEAN_MOTION":13.13470964,"ECCENTRICITY":0.0001808,"INCLINATION":87.8967,"RA_OF_ASC_NODE":329.5991,"ARG_OF_PERICENTER":84.9947,"MEAN_ANOMALY":275.1389,"EPHEMERIS_TYPE":0,"CLASSIFICATION_TYPE":"U","NORAD_CAT_ID":48063,"ELEMENT_SET_NO":999,"REV_AT_EPOCH":24740,"BSTAR":0.0010027,"MEAN_MOTION_DOT":3.79e-06,"MEAN_MOTION_DDOT":0.0},{"OBJECT_NAME":"ONEWEB-0167","OBJECT_ID":"2021-025Y","EPOCH":"2026-05-01T06:35:48.722208","MEAN_MOTION":13.13469212,"ECCENTRICITY":0.0001608,"INCLINATION":87.8959,"RA_OF_ASC_NODE":329.5776,"ARG_OF_PERICENTER":63.1751,"MEAN_ANOMALY":296.9542,"EPHEMERIS_TYPE":0,"CLASSIFICATION_TYPE":"U","NORAD_CAT_ID":48064,"ELEMENT_SET_NO":999,"REV_AT_EPOCH":24741,"BSTAR":0.00040424,"MEAN_MOTION_DOT":1.6e-06,"MEAN_MOTION_DDOT":0.0},{"OBJECT_NAME":"ONEWEB-0166","OBJECT_ID":"2021-025Z","EPOCH":"2026-05-01T01:39:36.075456","MEAN_MOTION":13.13476579,"ECCENTRICITY":0.000148,"INCLINATION":87.8958,"RA_OF_ASC_NODE":329.5851,"ARG_OF_PERICENTER":91.2245,"MEAN_ANOMALY":268.9054,"EPHEMERIS_TYPE":0,"CLASSIFICATION_TYPE":"U","NORAD_CAT_ID":48065,"ELEMENT_SET_NO":999,"REV_AT_EPOCH":24746,"BSTAR":-0.0036175,"MEAN_MOTION_DOT":-1.308e-05,"MEAN_MOTION_DDOT":0.0},{"OBJECT_NAME":"ONEWEB-0151","OBJECT_ID":"2021-025AA","EPOCH":"2026-05-01T01:42:03.069504","MEAN_MOTION":13.13471083,"ECCENTRICITY":0.0001733,"INCLINATION":87.8956,"RA_OF_ASC_NODE":329.6064,"ARG_OF_PERICENTER":82.1307,"MEAN_ANOMALY":278.0019,"EPHEMERIS_TYPE":0,"CLASSIFICATION_TYPE":"U","NORAD_CAT_ID":48066,"ELEMENT_SET_NO":999,"REV_AT_EPOCH":24740,"BSTAR":-0.00056503,"MEAN_MOTION_DOT":-1.94e-06,"MEAN_MOTION_DDOT":0.0},{"OBJECT_NAME":"ONEWEB-0170","OBJECT_ID":"2021-025AB","EPOCH":"2026-05-01T01:54:15.185952","MEAN_MOTION":13.13471126,"ECCENTRICITY":0.0002097,"INCLINATION":87.8955,"RA_OF_ASC_NODE":329.6069,"ARG_OF_PERICENTER":77.5904,"MEAN_ANOMALY":282.5459,"EPHEMERIS_TYPE":0,"CLASSIFICATION_TYPE":"U","NORAD_CAT_ID":48067,"ELEMENT_SET_NO":999,"REV_AT_EPOCH":24736,"BSTAR":-0.00020681,"MEAN_MOTION_DOT":-6.3e-07,"MEAN_MOTION_DDOT":0.0},{"OBJECT_NAME":"ONEWEB-0168","OBJECT_ID":"2021-025AC","EPOCH":"2026-05-01T07:01:23.673504","MEAN_MOTION":13.13470468,"ECCENTRICITY":0.0001521,"INCLINATION":87.8965,"RA_OF_ASC_NODE":329.5597,"ARG_OF_PERICENTER":85.7157,"MEAN_ANOMALY":274.4146,"EPHEMERIS_TYPE":0,"CLASSIFICATION_TYPE":"U","NORAD_CAT_ID":48068,"ELEMENT_SET_NO":999,"REV_AT_EPOCH":24740,"BSTAR":-0.00055396,"MEAN_MOTION_DOT":-1.9e-06,"MEAN_MOTION_DDOT":0.0},{"OBJECT_NAME":"ONEWEB-0173","OBJECT_ID":"2021-025AD","EPOCH":"2026-05-01T06:49:12.390816","MEAN_MOTION":13.13470347,"ECCENTRICITY":0.0001421,"INCLINATION":87.896,"RA_OF_ASC_NODE":329.566,"ARG_OF_PERICENTER":76.5444,"MEAN_ANOMALY":283.5844,"EPHEMERIS_TYPE":0,"CLASSIFICATION_TYPE":"U","NORAD_CAT_ID":48069,"ELEMENT_SET_NO":999,"REV_AT_EPOCH":24764,"BSTAR":-0.00043348999999999997,"MEAN_MOTION_DOT":-1.46e-06,"MEAN_MOTION_DDOT":0.0},{"OBJECT_NAME":"ONEWEB-0171","OBJECT_ID":"2021-025AE","EPOCH":"2026-05-01T02:13:44.869152","MEAN_MOTION":13.1347167,"ECCENTRICITY":0.0001748,"INCLINATION":87.8958,"RA_OF_ASC_NODE":329.6135,"ARG_OF_PERICENTER":82.6351,"MEAN_ANOMALY":277.4977,"EPHEMERIS_TYPE":0,"CLASSIFICATION_TYPE":"U","NORAD_CAT_ID":48070,"ELEMENT_SET_NO":999,"REV_AT_EPOCH":24743,"BSTAR":0.00066687,"MEAN_MOTION_DOT":2.56e-06,"MEAN_MOTION_DDOT":0.0},{"OBJECT_NAME":"ONEWEB-0172","OBJECT_ID":"2021-025AF","EPOCH":"2026-05-01T01:44:28.510944","MEAN_MOTION":13.1347025,"ECCENTRICITY":0.0001673,"INCLINATION":87.8959,"RA_OF_ASC_NODE":329.6052,"ARG_OF_PERICENTER":80.7755,"MEAN_ANOMALY":279.3563,"EPHEMERIS_TYPE":0,"CLASSIFICATION_TYPE":"U","NORAD_CAT_ID":48071,"ELEMENT_SET_NO":999,"REV_AT_EPOCH":24832,"BSTAR":-0.0010476,"MEAN_MOTION_DOT":-3.7e-06,"MEAN_MOTION_DDOT":0.0},{"OBJECT_NAME":"ONEWEB-0174","OBJECT_ID":"2021-025AG","EPOCH":"2026-05-01T06:46:45.636096","MEAN_MOTION":13.13470533,"ECCENTRICITY":0.0001619,"INCLINATION":87.8956,"RA_OF_ASC_NODE":329.564,"ARG_OF_PERICENTER":89.7021,"MEAN_ANOMALY":270.4294,"EPHEMERIS_TYPE":0,"CLASSIFICATION_TYPE":"U","NORAD_CAT_ID":48072,"ELEMENT_SET_NO":999,"REV_AT_EPOCH":24767,"BSTAR":-9.3118e-05,"MEAN_MOTION_DOT":-2.1e-07,"MEAN_MOTION_DDOT":0.0},{"OBJECT_NAME":"ONEWEB-0175","OBJECT_ID":"2021-025AH","EPOCH":"2026-05-01T02:01:33.456864","MEAN_MOTION":13.13470968,"ECCENTRICITY":0.0001876,"INCLINATION":87.8966,"RA_OF_ASC_NODE":329.5841,"ARG_OF_PERICENTER":76.1928,"MEAN_ANOMALY":283.941,"EPHEMERIS_TYPE":0,"CLASSIFICATION_TYPE":"U","NORAD_CAT_ID":48073,"ELEMENT_SET_NO":999,"REV_AT_EPOCH":24730,"BSTAR":0.00017474,"MEAN_MOTION_DOT":7.7e-07,"MEAN_MOTION_DDOT":0.0},{"OBJECT_NAME":"ONEWEB-0177","OBJECT_ID":"2021-025AJ","EPOCH":"2026-05-01T02:18:36.203904","MEAN_MOTION":13.13472917,"ECCENTRICITY":0.0001548,"INCLINATION":87.8961,"RA_OF_ASC_NODE":329.6023,"ARG_OF_PERICENTER":87.4118,"MEAN_ANOMALY":272.7189,"EPHEMERIS_TYPE":0,"CLASSIFICATION_TYPE":"U","NORAD_CAT_ID":48074,"ELEMENT_SET_NO":999,"REV_AT_EPOCH":24749,"BSTAR":0.00040176000000000003,"MEAN_MOTION_DOT":1.59e-06,"MEAN_MOTION_DDOT":0.0},{"OBJECT_NAME":"ONEWEB-0178","OBJECT_ID":"2021-025AK","EPOCH":"2026-05-01T06:25:02.654976","MEAN_MOTION":13.13469217,"ECCENTRICITY":0.000168,"INCLINATION":87.8947,"RA_OF_ASC_NODE":329.5874,"ARG_OF_PERICENTER":76.9505,"MEAN_ANOMALY":283.1812,"EPHEMERIS_TYPE":0,"CLASSIFICATION_TYPE":"U","NORAD_CAT_ID":48075,"ELEMENT_SET_NO":999,"REV_AT_EPOCH":24756,"BSTAR":0.0006849100000000001,"MEAN_MOTION_DOT":2.63e-06,"MEAN_MOTION_DDOT":0.0},{"OBJECT_NAME":"ONEWEB-0108","OBJECT_ID":"2021-025AL","EPOCH":"2026-04-30T23:57:14.671872","MEAN_MOTION":13.13470885,"ECCENTRICITY":0.0001856,"INCLINATION":87.8966,"RA_OF_ASC_NODE":329.6111,"ARG_OF_PERICENTER":92.3848,"MEAN_ANOMALY":267.7494,"EPHEMERIS_TYPE":0,"CLASSIFICATION_TYPE":"U","NORAD_CAT_ID":48076,"ELEMENT_SET_NO":999,"REV_AT_EPOCH":24745,"BSTAR":-0.00050891,"MEAN_MOTION_DOT":-1.73e-06,"MEAN_MOTION_DDOT":0.0},{"OBJECT_NAME":"ONEWEB-0169","OBJECT_ID":"2021-025AM","EPOCH":"2026-05-01T02:33:16.684704","MEAN_MOTION":13.13471108,"ECCENTRICITY":0.0001656,"INCLINATION":87.8959,"RA_OF_ASC_NODE":329.6018,"ARG_OF_PERICENTER":89.7702,"MEAN_ANOMALY":270.3617,"EPHEMERIS_TYPE":0,"CLASSIFICATION_TYPE":"U","NORAD_CAT_ID":48077,"ELEMENT_SET_NO":999,"REV_AT_EPOCH":24612,"BSTAR":0.00092541,"MEAN_MOTION_DOT":3.51e-06,"MEAN_MOTION_DDOT":0.0},{"OBJECT_NAME":"ONEWEB-0176","OBJECT_ID":"2021-031A","EPOCH":"2026-04-30T23:39:46.394496","MEAN_MOTION":13.14504115,"ECCENTRICITY":0.0001691,"INCLINATION":87.8924,"RA_OF_ASC_NODE":299.1186,"ARG_OF_PERICENTER":89.1458,"MEAN_ANOMALY":270.9866,"EPHEMERIS_TYPE":0,"CLASSIFICATION_TYPE":"U","NORAD_CAT_ID":48210,"ELEMENT_SET_NO":999,"REV_AT_EPOCH":24211,"BSTAR":-0.00042944,"MEAN_MOTION_DOT":-1.46e-06,"MEAN_MOTION_DDOT":0.0}]