ONEWEB-0164             
1 48063U 21025X   26121.09458136  .00000379  00000+0  10027-2 0  9999
2 48063  87.8967 329.5991 0001808  84.9947 275.1389 13.13470964247404
ONEWEB-0167             
1 48064U 21025Y   26121.27486947  .00000160  00000+0  40424-3 0  9994
2 48064  87.8959 329.5776 0001608  63.1751 296.9542 13.13469212247414
ONEWEB-0166             
1 48065U 21025Z   26121.06916754 -.00001308  00000+0 -36175-2 0  9990
2 48065  87.8958 329.5851 0001480  91.2245 268.9054 13.13476579247462
ONEWEB-0151             
1 48066U 21025AA  26121.07086886 -.00000194  00000+0 -56503-3 0  9996
2 48066  87.8956 329.6064 0001733  82.1307 278.0019 13.13471083247409
ONEWEB-0170             
1 48067U 21025AB  26121.07934243 -.00000063  00000+0 -20681-3 0  9999
2 48067  87.8955 329.6069 0002097  77.5904 282.5459 13.13471126247360
ONEWEB-0168             
1 48068U 21025AC  26121.29263511 -.00000190  00000+0 -55396-3 0  9999
2 48068  87.8965 329.5597 0001521  85.7157 274.4146 13.13470468247405
ONEWEB-0173             
1 48069U 21025AD  26121.28417119 -.00000146  00000+0 -43349-3 0  9990
2 48069  87.8960 329.5660 0001421  76.5444 283.5844 13.13470347247646
ONEWEB-0171             
1 48070U 21025AE  26121.09288043  .00000256  00000+0  66687-3 0  9993
2 48070  87.8958 329.6135 0001748  82.6351 277.4977 13.13471670247436
ONEWEB-0172             
1 48071U 21025AF  26121.07255221 -.00000370  00000+0 -10476-2 0  9997
2 48071  87.8959 329.6052 0001673  80.7755 279.3563 13.13470250248324
ONEWEB-0174             
1 48072U 21025AG  26121.28247264 -.00000021  00000+0 -93118-4 0  9998
2 48072  87.8956 329.5640 0001619  89.7021 270.4294 13.13470533247673
ONEWEB-0175             
1 48073U 21025AH  26121.08441501  .00000077  00000+0  17474-3 0  9996
2 48073  87.8966 329.5841 0001876  76.1928 283.9410 13.13470968247300
ONEWEB-0177             
1 48074U 21025AJ  26121.09625236  .00000159  00000+0  40176-3 0  9993
2 48074  87.8961 329.6023 0001548  87.4118 272.7189 13.13472917247496
ONEWEB-0178             
1 48075U 21025AK  26121.26739184  .00000263  00000+0  68491-3 0  9997
2 48075  87.8947 329.5874 0001680  76.9505 283.1812 13.13469217247560
ONEWEB-0108             
1 48076U 21025AL  26120.99808648 -.00000173  00000+0 -50891-3 0  9996
2 48076  87.8966 329.6111 0001856  92.3848 267.7494 13.13470885247459
ONEWEB-0169             
1 48077U 21025AM  26121.10644311  .00000351  00000+0  92541-3 0  9990
2 48077  87.8959 329.6018 0001656  89.7702 270.3617 13.13471108246124
ONEWEB-0176             
1 48210U 21031A   26120.98595364 -.00000146  00000+0 -42944-3 0  9990
2 48210  87.8924 299.1186 0001691  89.1458 270.9866 13.14504115242116
